DUBAISAT-1              
1 35682U 09041B   26200.37648533  .00000372  00000+0  62653-4 0  9994
2 35682  98.0090 333.2891 0009590 334.5492  25.5244 14.75170170909849
OCEANSAT-2              
1 35931U 09051A   26200.58276227  .00000022  00000+0  40518-4 0  9990
2 35931  98.2323 184.1998 0017618 140.9149 219.3294 13.99656037883863
WORLDVIEW-2 (WV-2)      
1 35946U 09055A   26200.59080301  .00000030  00000+0  24346-4 0  9997
2 35946  98.4753 273.5992 0005457 119.4081 240.7651 14.37907651880304
SMOS                    
1 36036U 09059A   26200.50523985  .00000104  00000+0  47191-4 0  9998
2 36036  98.4431  27.3666 0001190  97.6519 262.4804 14.39737386878108
YAOGAN-7                
1 36110U 09069A   26200.44877280  .00000171  00000+0  31018-4 0  9990
2 36110  98.0026  86.1103 0023288 296.9883  62.8950 14.78037618894393
TANDEM-X                
1 36605U 10030A   26200.46718952  .00000093  00000+0  76149-5 0  9999
2 36605  97.4457 207.7160 0001886  96.1050 264.0399 15.19149242891543
CARTOSAT-2B             
1 36795U 10035A   26200.61867696  .00000100  00000+0  20822-4 0  9996
2 36795  97.9930 250.9578 0012737  87.2875 272.9794 14.78652907864649
YAOGAN-10               
1 36834U 10038A   26200.62719515  .00000687  00000+0  85948-4 0  9990
2 36834  97.8965 223.7733 0001565  82.2155  27.0750 14.85435842862020
COSMO-SKYMED 4          
1 37216U 10060A   26200.64628939 -.00000309  00000+0 -32284-4 0  9999
2 37216  97.8897  23.7763 0001496  85.5093 274.6291 14.82148908849374
RESOURCESAT-2           
1 37387U 11015A   26200.60589398  .00000013  00000+0  26096-4 0  9994
2 37387  98.7628 267.8209 0011815 158.8717 201.2950 14.21600168790786
HAIYANG-2A              
1 37781U 11043A   26200.59252906 -.00000022  00000+0  23290-4 0  9997
2 37781  99.3405 202.5223 0001978  21.2371 338.8859 13.73205210751107
RASAT                   
1 37791U 11044D   26200.63102387  .00000242  00000+0  50344-4 0  9994
2 37791  98.0580 291.5335 0021990  89.5559  40.9046 14.68195316797942
SRMSAT                  
1 37841U 11058D   26200.47281080  .00000323  00000+0  31520-4 0  9990
2 37841  19.9703 224.0535 0011622 198.3293 313.0958 14.11581587762388
PLEIADES 1A             
1 38012U 11076F   26200.66194206  .00000257  00000+0  65222-4 0  9997
2 38012  98.1963 275.3268 0001626  77.9526  82.8737 14.58548744776720
ZIYUAN 1-02C (ZY 1-02C) 
1 38038U 11079A   26200.65218272  .00000341  00000+0  12626-3 0  9990
2 38038  98.4052 267.2803 0005883 199.8838 313.7446 14.38238504763877
ARIRANG-3 (KOMPSAT-3)   
1 38338U 12025B   26200.60535336  .00000175  00000+0  44057-4 0  9992
2 38338  98.1188 157.5098 0005952  26.8704 333.2805 14.62231048756086
EXACTVIEW-1 (ADS-1B)    
1 38709U 12039C   26200.32926733  .00000045  00000+0  39219-4 0  9993
2 38709  98.9809 318.4501 0011928  80.7254 279.5273 14.24992860727287
SPOT 6                  
1 38755U 12047A   26200.64671598  .00000375  00000+0  90550-4 0  9995
2 38755  98.2100 267.5730 0001105  90.6602 269.4724 14.58541200737786
PLEIADES 1B             
1 39019U 12068A   26200.59672378  .00000439  00000+0  10419-3 0  9999
2 39019  98.1934 275.2001 0001504  77.4071 282.7297 14.58536958725578
GOKTURK 2               
1 39030U 12073A   26200.56289517 -.00000162  00000+0 -16847-4 0  9991
2 39030  97.6809  36.3696 0001017 101.9231 258.2093 14.75568973729287
LANDSAT 8               
1 39084U 13008A   26200.57428504  .00000132  00000+0  39388-4 0  9991
2 39084  98.2287 270.3224 0001348  91.7153 268.4200 14.57095918702611
SARAL                   
1 39086U 13009A   26200.58153191  .00000020  00000+0  23240-4 0  9998
2 39086  98.5559  26.7393 0001962 156.6844 203.4429 14.32896449700248
GAOFEN-1                
1 39150U 13018A   26200.59154442  .00000513  00000+0  80782-4 0  9992
2 39150  97.9079 271.9987 0017458 157.2901 202.9085 14.76522740713021
VNREDSAT 1              
1 39160U 13021B   26200.60282315  .00000519  00000+0  10561-3 0  9993
2 39160  97.9057 252.7724 0001534  80.9611 279.1766 14.64887550705036
ARIRANG-5 (KOMPSAT-5)   
1 39227U 13042A   26200.62214462 -.00000250  00000+0 -13521-4 0  9994
2 39227  97.6203  26.8667 0004887  45.7334 314.4293 15.04494562708731
SKYSAT-A                
1 39418U 13066C   26200.39814561  .00001439  00000+0  84470-4 0  9991
2 39418  97.3798 248.7687 0020863 198.3581 161.6900 15.13127903693357
DUBAISAT-2              
1 39419U 13066D   26200.60149968  .00000944  00000+0  61241-4 0  9999
2 39419  97.4583 189.9039 0009146 285.7007  74.3213 15.10387399691284
GPM-CORE                
1 39574U 14009C   26200.57701193  .00003165  00000+0  71967-4 0  9993
2 39574  64.9697 199.5998 0010876 263.4606  96.5297 15.45073557702818
SENTINEL-1A             
1 39634U 14016A   26200.59609115 -.00000051  00000+0 -11415-5 0  9997
2 39634  98.1732 207.6547 0001456  82.5369 277.5996 14.59173468654746
KAZEOSAT 1              
1 39731U 14024A   26200.63290396  .00000254  00000+0  90407-4 0  9996
2 39731  98.3190 272.2706 0001193  85.6579 274.4748 14.42039020643234
