OBJECT_NAME,OBJECT_ID,EPOCH,MEAN_MOTION,ECCENTRICITY,INCLINATION,RA_OF_ASC_NODE,ARG_OF_PERICENTER,MEAN_ANOMALY,EPHEMERIS_TYPE,CLASSIFICATION_TYPE,NORAD_CAT_ID,ELEMENT_SET_NO,REV_AT_EPOCH,BSTAR,MEAN_MOTION_DOT,MEAN_MOTION_DDOT
DUBAISAT-1,2009-041B,2026-07-19T09:02:08.332512,14.75170170,.00095907,98.0090,333.2891,334.5492,25.5244,0,U,35682,999,90984,.62652846E-4,.372E-5,0
OCEANSAT-2,2009-051A,2026-07-19T13:59:10.660128,13.99656037,.00176189,98.2323,184.1998,140.9149,219.3294,0,U,35931,999,88386,.40518027E-4,.22E-6,0
WORLDVIEW-2 (WV-2),2009-055A,2026-07-19T14:10:45.380064,14.37907651,.00054571,98.4753,273.5992,119.4081,240.7651,0,U,35946,999,88030,.24346109E-4,.3E-6,0
SMOS,2009-059A,2026-07-19T12:07:32.723040,14.39737386,.000119,98.4431,27.3666,97.6519,262.4804,0,U,36036,999,87810,.47190754E-4,.104E-5,0
YAOGAN-7,2009-069A,2026-07-19T10:46:13.969920,14.78037618,.00232886,98.0026,86.1103,296.9883,62.8950,0,U,36110,999,89439,.31017574E-4,.171E-5,0
TANDEM-X,2010-030A,2026-07-19T11:12:45.174528,15.19149242,.00018869,97.4457,207.7160,96.1050,264.0399,0,U,36605,999,89154,.7614899E-5,.93E-6,0
CARTOSAT-2B,2010-035A,2026-07-19T14:50:53.689344,14.78652907,.00127375,97.9930,250.9578,87.2875,272.9794,0,U,36795,999,86464,.20821678E-4,.1E-5,0
YAOGAN-10,2010-038A,2026-07-19T15:03:09.660960,14.85435842,.00015653,97.8965,223.7733,82.2155,27.0750,0,U,36834,999,86202,.85948111E-4,.687E-5,0
COSMO-SKYMED 4,2010-060A,2026-07-19T15:30:39.403296,14.82148908,.00014968,97.8897,23.7763,85.5093,274.6291,0,U,37216,999,84937,-.32283802E-4,-.309E-5,0
RESOURCESAT-2,2011-015A,2026-07-19T14:32:29.239872,14.21600168,.00118155,98.7628,267.8209,158.8717,201.2950,0,U,37387,999,79078,.26095693E-4,.13E-6,0
HAIYANG-2A,2011-043A,2026-07-19T14:13:14.510784,13.73205210,.00019786,99.3405,202.5223,21.2371,338.8859,0,U,37781,999,75110,.23290088E-4,-.22E-6,0
RASAT,2011-044D,2026-07-19T15:08:40.462368,14.68195316,.002199,98.0580,291.5335,89.5559,40.9046,0,U,37791,999,79794,.50344147E-4,.242E-5,0
SRMSAT,2011-058D,2026-07-19T11:20:50.853120,14.11581587,.00116223,19.9703,224.0535,198.3293,313.0958,0,U,37841,999,76238,.31519595E-4,.323E-5,0
PLEIADES 1A,2011-076F,2026-07-19T15:53:11.793984,14.58548744,.00016268,98.1963,275.3268,77.9526,82.8737,0,U,38012,999,77672,.65222203E-4,.257E-5,0
ZIYUAN 1-02C (ZY 1-02C),2011-079A,2026-07-19T15:39:08.587008,14.38238504,.00058831,98.4052,267.2803,199.8838,313.7446,0,U,38038,999,76387,.12626356E-3,.341E-5,0
ARIRANG-3 (KOMPSAT-3),2012-025B,2026-07-19T14:31:42.530304,14.62231048,.00059525,98.1188,157.5098,26.8704,333.2805,0,U,38338,999,75608,.44056846E-4,.175E-5,0
EXACTVIEW-1 (ADS-1B),2012-039C,2026-07-19T07:54:08.697312,14.24992860,.00119281,98.9809,318.4501,80.7254,279.5273,0,U,38709,999,72728,.39219029E-4,.45E-6,0
SPOT 6,2012-047A,2026-07-19T15:31:16.260672,14.58541200,.00011053,98.2100,267.5730,90.6602,269.4724,0,U,38755,999,73778,.90549698E-4,.375E-5,0
PLEIADES 1B,2012-068A,2026-07-19T14:19:16.934592,14.58536958,.0001504,98.1934,275.2001,77.4071,282.7297,0,U,39019,999,72557,.10419138E-3,.439E-5,0
GOKTURK 2,2012-073A,2026-07-19T13:30:34.142688,14.75568973,.0001017,97.6809,36.3696,101.9231,258.2093,0,U,39030,999,72928,-.1684716E-4,-.162E-5,0
LANDSAT 8,2013-008A,2026-07-19T13:46:58.227456,14.57095918,.00013487,98.2287,270.3224,91.7153,268.4200,0,U,39084,999,70261,.39388453E-4,.132E-5,0
SARAL,2013-009A,2026-07-19T13:57:24.357024,14.32896449,.00019625,98.5559,26.7393,156.6844,203.4429,0,U,39086,999,70024,.23239981E-4,.2E-6,0
GAOFEN-1,2013-018A,2026-07-19T14:11:49.437888,14.76522740,.00174583,97.9079,271.9987,157.2901,202.9085,0,U,39150,999,71302,.80781799E-4,.513E-5,0
VNREDSAT 1,2013-021B,2026-07-19T14:28:03.920160,14.64887550,.00015344,97.9057,252.7724,80.9611,279.1766,0,U,39160,999,70503,.10560972E-3,.519E-5,0
ARIRANG-5 (KOMPSAT-5),2013-042A,2026-07-19T14:55:53.295168,15.04494562,.00048875,97.6203,26.8667,45.7334,314.4293,0,U,39227,999,70873,-.13521491E-4,-.25E-5,0
SKYSAT-A,2013-066C,2026-07-19T09:33:19.780704,15.13127903,.00208635,97.3798,248.7687,198.3581,161.6900,0,U,39418,999,69335,.84469848E-4,.1439E-4,0
DUBAISAT-2,2013-066D,2026-07-19T14:26:09.572352,15.10387399,.00091465,97.4583,189.9039,285.7007,74.3213,0,U,39419,999,69128,.61241102E-4,.944E-5,0
GPM-CORE,2014-009C,2026-07-19T13:50:53.830752,15.45073557,.00108769,64.9697,199.5998,263.4606,96.5297,0,U,39574,999,70281,.71966518E-4,.3165E-4,0
SENTINEL-1A,2014-016A,2026-07-19T14:18:22.275360,14.59173468,.00014562,98.1732,207.6547,82.5369,277.5996,0,U,39634,999,65474,-.1141482E-5,-.51E-6,0
KAZEOSAT 1,2014-024A,2026-07-19T15:11:22.902144,14.42039020,.00011938,98.3190,272.2706,85.6579,274.4748,0,U,39731,999,64323,.90407156E-4,.254E-5,0
